GSAT0216 (GALILEO 20)   
1 43056U 17079B   26197.04913653  .00000052  00000+0  00000+0 0  9993
2 43056  55.0677 220.7120 0004910 277.5632  82.4337  1.70474464 53495
GSAT0217 (GALILEO 21)   
1 43057U 17079C   26198.44308914  .00000047  00000+0  00000+0 0  9991
2 43057  55.0656 220.6714 0004217 291.8974  68.1010  1.70474425 53507
GSAT0218 (GALILEO 22)   
1 43058U 17079D   26196.90343938  .00000053  00000+0  00000+0 0  9993
2 43058  55.0660 220.7113 0005401 274.7995  85.1927  1.70474408 53503
BEIDOU-3 M7             
1 43107U 18003A   26196.27249963 -.00000070  00000+0  00000+0 0  9999
2 43107  54.3016 301.3358 0004346  99.7203 260.3603  1.86228000 57870
BEIDOU-3 M8             
1 43108U 18003B   26197.29074103 -.00000075  00000+0  00000+0 0  9990
2 43108  54.2930 301.2814 0003089 256.6040 103.3959  1.86230859 57906
BEIDOU-3 M4             
1 43207U 18018A   26195.04916456 -.00000038  00000+0  00000+0 0  9992
2 43207  56.6746  62.2635 0007449  28.5883 331.5267  1.86230761 57243
BEIDOU-3 M3             
1 43208U 18018B   26198.33739135 -.00000055  00000+0  00000+0 0  9994
2 43208  56.6771  62.1587 0007658 346.9087  13.1423  1.86230865 57301
BEIDOU-3 M9             
1 43245U 18029A   26196.40756696 -.00000067  00000+0  00000+0 0  9997
2 43245  54.1665 298.9609 0001237 187.3029 172.7315  1.86227874 56421
BEIDOU-3 M10            
1 43246U 18029B   26197.95265421 -.00000077  00000+0  00000+0 0  9991
2 43246  54.1629 298.9337 0003239  37.5825 322.4793  1.86229048 56434
IRNSS-1I                
1 43286U 18035A   26197.74975302  .00000060  00000+0  00000+0 0  9996
2 43286  28.8220  73.7347 0018408 178.6594   7.1470  1.00272376 30379
COSMOS 2527 [GLONASS-M] 
1 43508U 18053A   26196.70970326 -.00000011  00000+0  00000+0 0  9996
2 43508  65.5932  72.9565 0006433 229.6804 130.3403  2.13102044 62888
BEIDOU-2 IGSO-7         
1 43539U 18057A   26197.82826650 -.00000084  00000+0  00000+0 0  9998
2 43539  55.1987 162.7987 0104914 237.9691 299.1450  1.00242392 29427
GSAT0221 (GALILEO 25)   
1 43564U 18060A   26198.56730463 -.00000104  00000+0  00000+0 0  9991
2 43564  57.1585 340.9609 0002701 283.6812  76.2771  1.70476136 49688
GSAT0222 (GALILEO 26)   
1 43565U 18060B   26198.78700514 -.00000104  00000+0  00000+0 0  9990
2 43565  57.1619 340.9586 0002860 235.0008 124.9612  1.70475909 49733
GSAT0219 (GALILEO 23)   
1 43566U 18060C   26196.66151734 -.00000101  00000+0  00000+0 0  9997
2 43566  57.1620 341.0175 0001836 298.1228  61.8439  1.70476050 49675
GSAT0220 (GALILEO 24)   
1 43567U 18060D   26198.05570153 -.00000103  00000+0  00000+0 0  9995
2 43567  57.1613 340.9792 0002156 287.6741  72.2898  1.70475831 49682
BEIDOU-3 M5             
1 43581U 18062A   26197.10261403  .00000039  00000+0  00000+0 0  9990
2 43581  54.0864 181.3210 0005659 293.1569  66.7535  1.86228746 54179
BEIDOU-3 M6             
1 43582U 18062B   26196.96621981  .00000039  00000+0  00000+0 0  9995
2 43582  54.0864 181.3149 0005364  10.9821 348.9999  1.86227848 54171
BEIDOU-3 M12            
1 43602U 18067A   26195.83074670  .00000041  00000+0  00000+0 0  9998
2 43602  54.1815 180.1029 0007941  30.1280 329.8903  1.86227572 53638
BEIDOU-3 M11            
1 43603U 18067B   26195.96588683  .00000041  00000+0  00000+0 0  9997
2 43603  54.1789 180.0620 0004640  13.0811 346.9028  1.86227031 53669
BEIDOU-3 M13            
1 43622U 18072A   26194.84670723 -.00000039  00000+0  00000+0 0  9995
2 43622  56.6475  61.7808 0006235 333.7731  26.2691  1.86231187 53152
BEIDOU-3 M14            
1 43623U 18072B   26196.85995828 -.00000045  00000+0  00000+0 0  9992
2 43623  56.6514  61.7086 0005557  10.9419 349.1444  1.86231129 53180
BEIDOU-3 M16            
1 43647U 18078A   26197.01487644 -.00000071  00000+0  00000+0 0  9994
2 43647  54.0618 298.9748 0006597  39.6301 320.4557  1.86232227 52697
BEIDOU-3 M15            
1 43648U 18078B   26198.75498525 -.00000083  00000+0  00000+0 0  9990
2 43648  54.0559 298.9138 0003456  57.6139 302.4590  1.86232380 52748
BEIDOU-3 G1             
1 43683U 18085A   26198.87060520 -.00000119  00000+0  00000+0 0  9990
2 43683   2.9443  96.5401 0008015 356.7909 315.7401  1.00272449 28365
COSMOS 2529 [GLONASS-M] 
1 43687U 18086A   26197.27515200  .00000052  00000+0  00000+0 0  9993
2 43687  64.2972 191.6121 0012126 256.3116 103.5531  2.13101958 59908
BEIDOU-3 M17            
1 43706U 18093A   26196.23416436  .00000040  00000+0  00000+0 0  9996
2 43706  54.1700 181.3447 0010121 294.3653  66.9155  1.86228289 52065
BEIDOU-3 M18            
1 43707U 18093B   26197.70663610  .00000042  00000+0  00000+0 0  9990
2 43707  54.1709 181.2870 0008156 323.7143  36.1996  1.86226527 52087
NAVSTAR 77 (USA 289)    
1 43873U 18109A   26198.96803537 -.00000029  00000+0  00000+0 0  9991
2 43873  55.7004  90.9719 0038655 197.1071 191.8429  2.00563005 55696
BEIDOU-3 IGSO-1         
1 44204U 19023A   26197.32034861 -.00000209  00000+0  00000+0 0  9991
2 44204  58.7368  37.3490 0025911 224.0979 267.2124  1.00282972  7507
BEIDOU-2 G8             
1 44231U 19027A   26198.86680288 -.00000257  00000+0  00000+0 0  9998
2 44231   1.7342  74.5018 0009678 282.2079  35.5390  1.00270905 26386
